{
 "type": "FeatureCollection",
 "properties": {
  "PLACEHOLDER": true,
  "note": "SCHEMATIC placeholder derived from brief dimensions (1500 m quay, ~80 ha). Replace with polygons digitised from opendata.portdebarcelona.cat (see scripts/DIGITISE_SITE.md).",
  "local_origin": {
   "lat": 41.32,
   "lon": 2.14,
   "note": "approximate; x east along quay, y inland"
  }
 },
 "features": [
  {
   "type": "Feature",
   "properties": {
    "kind": "terminal",
    "name": "BEST terminal (placeholder)"
   },
   "geometry": {
    "type": "Polygon",
    "coordinates": [
     [
      [
       2.14,
       41.32
      ],
      [
       2.1579415,
       41.32
      ],
      [
       2.1581807,
       41.320539
      ],
      [
       2.1581807,
       41.3242221
      ],
      [
       2.1577023,
       41.3250305
      ],
      [
       2.1414353,
       41.3250305
      ],
      [
       2.14,
       41.3243119
      ],
      [
       2.14,
       41.32
      ]
     ]
    ]
   }
  },
  {
   "type": "Feature",
   "properties": {
    "kind": "quay_line",
    "length_m": 1500
   },
   "geometry": {
    "type": "LineString",
    "coordinates": [
     [
      2.14,
      41.32
     ],
     [
      2.1579415,
      41.32
     ]
    ]
   }
  },
  {
   "type": "Feature",
   "properties": {
    "kind": "zone",
    "zone": "quay_apron"
   },
   "geometry": {
    "type": "Polygon",
    "coordinates": [
     [
      [
       2.14,
       41.32
      ],
      [
       2.1579415,
       41.32
      ],
      [
       2.1581807,
       41.320539
      ],
      [
       2.1581807,
       41.321078
      ],
      [
       2.14,
       41.321078
      ],
      [
       2.14,
       41.32
      ]
     ]
    ]
   }
  },
  {
   "type": "Feature",
   "properties": {
    "kind": "zone",
    "zone": "asc_blocks"
   },
   "geometry": {
    "type": "Polygon",
    "coordinates": [
     [
      [
       2.14,
       41.321078
      ],
      [
       2.1581807,
       41.321078
      ],
      [
       2.1581807,
       41.3240424
      ],
      [
       2.1403588,
       41.3240424
      ],
      [
       2.14,
       41.321078
      ]
     ]
    ]
   }
  },
  {
   "type": "Feature",
   "properties": {
    "kind": "zone",
    "zone": "gate_rail"
   },
   "geometry": {
    "type": "Polygon",
    "coordinates": [
     [
      [
       2.1403588,
       41.3240424
      ],
      [
       2.1581807,
       41.3240424
      ],
      [
       2.1581807,
       41.3242221
      ],
      [
       2.1577023,
       41.3250305
      ],
      [
       2.1414353,
       41.3250305
      ],
      [
       2.14,
       41.3243119
      ],
      [
       2.1403588,
       41.3240424
      ]
     ]
    ]
   }
  },
  {
   "type": "Feature",
   "properties": {
    "kind": "asc_block",
    "id": "ASC-01"
   },
   "geometry": {
    "type": "Polygon",
    "coordinates": [
     [
      [
       2.1404784,
       41.3212576
      ],
      [
       2.1411483,
       41.3212576
      ],
      [
       2.1411483,
       41.3238627
      ],
      [
       2.1404784,
       41.3238627
      ],
      [
       2.1404784,
       41.3212576
      ]
     ]
    ]
   }
  },
  {
   "type": "Feature",
   "properties": {
    "kind": "asc_block",
    "id": "ASC-02"
   },
   "geometry": {
    "type": "Polygon",
    "coordinates": [
     [
      [
       2.1415071,
       41.3212576
      ],
      [
       2.1421769,
       41.3212576
      ],
      [
       2.1421769,
       41.3238627
      ],
      [
       2.1415071,
       41.3238627
      ],
      [
       2.1415071,
       41.3212576
      ]
     ]
    ]
   }
  },
  {
   "type": "Feature",
   "properties": {
    "kind": "asc_block",
    "id": "ASC-03"
   },
   "geometry": {
    "type": "Polygon",
    "coordinates": [
     [
      [
       2.1425357,
       41.3212576
      ],
      [
       2.1432055,
       41.3212576
      ],
      [
       2.1432055,
       41.3238627
      ],
      [
       2.1425357,
       41.3238627
      ],
      [
       2.1425357,
       41.3212576
      ]
     ]
    ]
   }
  },
  {
   "type": "Feature",
   "properties": {
    "kind": "asc_block",
    "id": "ASC-04"
   },
   "geometry": {
    "type": "Polygon",
    "coordinates": [
     [
      [
       2.1435644,
       41.3212576
      ],
      [
       2.1442342,
       41.3212576
      ],
      [
       2.1442342,
       41.3238627
      ],
      [
       2.1435644,
       41.3238627
      ],
      [
       2.1435644,
       41.3212576
      ]
     ]
    ]
   }
  },
  {
   "type": "Feature",
   "properties": {
    "kind": "asc_block",
    "id": "ASC-05"
   },
   "geometry": {
    "type": "Polygon",
    "coordinates": [
     [
      [
       2.144593,
       41.3212576
      ],
      [
       2.1452628,
       41.3212576
      ],
      [
       2.1452628,
       41.3238627
      ],
      [
       2.144593,
       41.3238627
      ],
      [
       2.144593,
       41.3212576
      ]
     ]
    ]
   }
  },
  {
   "type": "Feature",
   "properties": {
    "kind": "asc_block",
    "id": "ASC-06"
   },
   "geometry": {
    "type": "Polygon",
    "coordinates": [
     [
      [
       2.1456217,
       41.3212576
      ],
      [
       2.1462915,
       41.3212576
      ],
      [
       2.1462915,
       41.3238627
      ],
      [
       2.1456217,
       41.3238627
      ],
      [
       2.1456217,
       41.3212576
      ]
     ]
    ]
   }
  },
  {
   "type": "Feature",
   "properties": {
    "kind": "asc_block",
    "id": "ASC-07"
   },
   "geometry": {
    "type": "Polygon",
    "coordinates": [
     [
      [
       2.1466503,
       41.3212576
      ],
      [
       2.1473201,
       41.3212576
      ],
      [
       2.1473201,
       41.3238627
      ],
      [
       2.1466503,
       41.3238627
      ],
      [
       2.1466503,
       41.3212576
      ]
     ]
    ]
   }
  },
  {
   "type": "Feature",
   "properties": {
    "kind": "asc_block",
    "id": "ASC-08"
   },
   "geometry": {
    "type": "Polygon",
    "coordinates": [
     [
      [
       2.147679,
       41.3212576
      ],
      [
       2.1483488,
       41.3212576
      ],
      [
       2.1483488,
       41.3238627
      ],
      [
       2.147679,
       41.3238627
      ],
      [
       2.147679,
       41.3212576
      ]
     ]
    ]
   }
  },
  {
   "type": "Feature",
   "properties": {
    "kind": "asc_block",
    "id": "ASC-09"
   },
   "geometry": {
    "type": "Polygon",
    "coordinates": [
     [
      [
       2.1487076,
       41.3212576
      ],
      [
       2.1493774,
       41.3212576
      ],
      [
       2.1493774,
       41.3238627
      ],
      [
       2.1487076,
       41.3238627
      ],
      [
       2.1487076,
       41.3212576
      ]
     ]
    ]
   }
  },
  {
   "type": "Feature",
   "properties": {
    "kind": "asc_block",
    "id": "ASC-10"
   },
   "geometry": {
    "type": "Polygon",
    "coordinates": [
     [
      [
       2.1497363,
       41.3212576
      ],
      [
       2.1504061,
       41.3212576
      ],
      [
       2.1504061,
       41.3238627
      ],
      [
       2.1497363,
       41.3238627
      ],
      [
       2.1497363,
       41.3212576
      ]
     ]
    ]
   }
  },
  {
   "type": "Feature",
   "properties": {
    "kind": "asc_block",
    "id": "ASC-11"
   },
   "geometry": {
    "type": "Polygon",
    "coordinates": [
     [
      [
       2.1507649,
       41.3212576
      ],
      [
       2.1514347,
       41.3212576
      ],
      [
       2.1514347,
       41.3238627
      ],
      [
       2.1507649,
       41.3238627
      ],
      [
       2.1507649,
       41.3212576
      ]
     ]
    ]
   }
  },
  {
   "type": "Feature",
   "properties": {
    "kind": "asc_block",
    "id": "ASC-12"
   },
   "geometry": {
    "type": "Polygon",
    "coordinates": [
     [
      [
       2.1517935,
       41.3212576
      ],
      [
       2.1524634,
       41.3212576
      ],
      [
       2.1524634,
       41.3238627
      ],
      [
       2.1517935,
       41.3238627
      ],
      [
       2.1517935,
       41.3212576
      ]
     ]
    ]
   }
  },
  {
   "type": "Feature",
   "properties": {
    "kind": "asc_block",
    "id": "ASC-13"
   },
   "geometry": {
    "type": "Polygon",
    "coordinates": [
     [
      [
       2.1528222,
       41.3212576
      ],
      [
       2.153492,
       41.3212576
      ],
      [
       2.153492,
       41.3238627
      ],
      [
       2.1528222,
       41.3238627
      ],
      [
       2.1528222,
       41.3212576
      ]
     ]
    ]
   }
  },
  {
   "type": "Feature",
   "properties": {
    "kind": "asc_block",
    "id": "ASC-14"
   },
   "geometry": {
    "type": "Polygon",
    "coordinates": [
     [
      [
       2.1538508,
       41.3212576
      ],
      [
       2.1545207,
       41.3212576
      ],
      [
       2.1545207,
       41.3238627
      ],
      [
       2.1538508,
       41.3238627
      ],
      [
       2.1538508,
       41.3212576
      ]
     ]
    ]
   }
  },
  {
   "type": "Feature",
   "properties": {
    "kind": "asc_block",
    "id": "ASC-15"
   },
   "geometry": {
    "type": "Polygon",
    "coordinates": [
     [
      [
       2.1548795,
       41.3212576
      ],
      [
       2.1555493,
       41.3212576
      ],
      [
       2.1555493,
       41.3238627
      ],
      [
       2.1548795,
       41.3238627
      ],
      [
       2.1548795,
       41.3212576
      ]
     ]
    ]
   }
  },
  {
   "type": "Feature",
   "properties": {
    "kind": "asc_block",
    "id": "ASC-16"
   },
   "geometry": {
    "type": "Polygon",
    "coordinates": [
     [
      [
       2.1559081,
       41.3212576
      ],
      [
       2.1565779,
       41.3212576
      ],
      [
       2.1565779,
       41.3238627
      ],
      [
       2.1559081,
       41.3238627
      ],
      [
       2.1559081,
       41.3212576
      ]
     ]
    ]
   }
  },
  {
   "type": "Feature",
   "properties": {
    "kind": "asc_block",
    "id": "ASC-17"
   },
   "geometry": {
    "type": "Polygon",
    "coordinates": [
     [
      [
       2.1569368,
       41.3212576
      ],
      [
       2.1576066,
       41.3212576
      ],
      [
       2.1576066,
       41.3238627
      ],
      [
       2.1569368,
       41.3238627
      ],
      [
       2.1569368,
       41.3212576
      ]
     ]
    ]
   }
  }
 ]
}